{
    "links": {
        "self": "http://www.neowsapp.com/rest/v1/neo/3758932?api_key=iIulBulltgU6a56xZRHN4H3l9WmuAYTsLGpBGhQ2"
    },
    "id": "3758932",
    "neo_reference_id": "3758932",
    "name": "(2016 RV1)",
    "designation": "2016 RV1",
    "nasa_jpl_url": "http://ssd.jpl.nasa.gov/sbdb.cgi?sstr=3758932",
    "absolute_magnitude_h": 25.0,
    "estimated_diameter": {
        "kilometers": {
            "estimated_diameter_min": 0.02658,
            "estimated_diameter_max": 0.0594346868
        },
        "meters": {
            "estimated_diameter_min": 26.58,
            "estimated_diameter_max": 59.4346868419
        },
        "miles": {
            "estimated_diameter_min": 0.0165160412,
            "estimated_diameter_max": 0.0369309908
        },
        "feet": {
            "estimated_diameter_min": 87.2047272,
            "estimated_diameter_max": 194.9956979785
        }
    },
    "is_potentially_hazardous_asteroid": false,
    "close_approach_data": [
        {
            "close_approach_date": "2016-09-09",
            "close_approach_date_full": "2016-Sep-09 07:46",
            "epoch_date_close_approach": 1473407160000,
            "relative_velocity": {
                "kilometers_per_second": "11.355181517",
                "kilometers_per_hour": "40878.6534612317",
                "miles_per_hour": "25400.405535397"
            },
            "miss_distance": {
                "astronomical": "0.0485364675",
                "lunar": "18.8806858575",
                "kilometers": "7260952.155324225",
                "miles": "4511746.456855305"
            },
            "orbiting_body": "Earth"
        },
        {
            "close_approach_date": "2109-08-12",
            "close_approach_date_full": "2109-Aug-12 05:01",
            "epoch_date_close_approach": 4405726860000,
            "relative_velocity": {
                "kilometers_per_second": "17.7207872122",
                "kilometers_per_hour": "63794.8339637908",
                "miles_per_hour": "39639.6289148899"
            },
            "miss_distance": {
                "astronomical": "0.3040205105",
                "lunar": "118.2639785845",
                "kilometers": "45480820.807112635",
                "miles": "28260471.594058963"
            },
            "orbiting_body": "Earth"
        }
    ],
    "orbital_data": {
        "orbit_id": "7",
        "orbit_determination_date": "2017-04-06 08:24:10",
        "first_observation_date": "2016-09-05",
        "last_observation_date": "2016-09-10",
        "data_arc_in_days": 5,
        "observations_used": 38,
        "orbit_uncertainty": "8",
        "minimum_orbit_intersection": ".0478096",
        "jupiter_tisserand_invariant": "3.028",
        "epoch_osculation": "2457639.5",
        "eccentricity": ".6133905021559294",
        "semi_major_axis": "2.697568283682361",
        "inclination": "14.86531454466981",
        "ascending_node_longitude": "163.0476664119901",
        "orbital_period": "1618.292782073516",
        "perihelion_distance": "1.042905519554529",
        "perihelion_argument": "195.9760910927131",
        "aphelion_distance": "4.352231047810193",
        "perihelion_time": "2457651.490706216306",
        "mean_anomaly": "357.3325875974438",
        "mean_motion": ".2224566555495184",
        "equinox": "J2000",
        "orbit_class": {
            "orbit_class_type": "AMO",
            "orbit_class_description": "Near-Earth asteroid orbits similar to that of 1221 Amor",
            "orbit_class_range": "1.017 AU < q (perihelion) < 1.3 AU"
        }
    },
    "is_sentry_object": false
}